{"type": "FeatureCollection", "features": [ {"type": "Feature", "properties": {"norad_id": 66526, "name": "STARLINK-35932", "group": "last-30-days", "lat": 34.37522738697926, "lon": -159.66685690775998, "alt_km": 410.6329377509783, "timestamp": "2025-12-10T09:57:43.488917+00:00", "meta": {"OBJECT_NAME": "STARLINK-35932", "OBJECT_ID": "2025-265L", "EPOCH": "2025-12-10T04:00:01.998720", "MEAN_MOTION": 15.50603726, "ECCENTRICITY": 0.0001673, "INCLINATION": 42.9996, "RA_OF_ASC_NODE": 69.0194, "ARG_OF_PERICENTER": 276.5331, "MEAN_ANOMALY": 259.2778, "EPHEMERIS_TYPE": 0, "CLASSIFICATION_TYPE": "U", "NORAD_CAT_ID": 66526, "ELEMENT_SET_NO": 999, "REV_AT_EPOCH": 447, "BSTAR": -0.0014046, "MEAN_MOTION_DOT": -0.00081959, "MEAN_MOTION_DDOT": 0}, "tle": {"line1": "1 66526U 25265L   25344.16668980 -.00081959  00000+0 -14046-2 0  9997", "line2": "2 66526  42.9996  69.0194 0001673 276.5331 259.2778 15.50603726  4479"}}, "geometry": {"type": "Point", "coordinates": [-159.66685690775998, 34.37522738697926]}}, {"type": "Feature", "properties": {"norad_id": 66527, "name": "STARLINK-35935", "group": "last-30-days", "lat": 33.47233021340836, "lon": -157.63736324124858, "alt_km": 410.5755365082232, "timestamp": "2025-12-10T09:57:43.488927+00:00", "meta": {"OBJECT_NAME": "STARLINK-35935", "OBJECT_ID": "2025-265M", "EPOCH": "2025-12-10T04:00:01.998720", "MEAN_MOTION": 15.50594072, "ECCENTRICITY": 0.0001485, "INCLINATION": 42.9996, "RA_OF_ASC_NODE": 69.0149, "ARG_OF_PERICENTER": 268.195, "MEAN_ANOMALY": 269.5348, "EPHEMERIS_TYPE": 0, "CLASSIFICATION_TYPE": "U", "NORAD_CAT_ID": 66527, "ELEMENT_SET_NO": 999, "REV_AT_EPOCH": 458, "BSTAR": -0.0011607, "MEAN_MOTION_DOT": -0.00067881, "MEAN_MOTION_DDOT": 0}, "tle": {"line1": "1 66527U 25265M   25344.16668980 -.00067881  00000+0 -11607-2 0  9996", "line2": "2 66527  42.9996  69.0149 0001485 268.1950 269.5348 15.50594072  4587"}}, "geometry": {"type": "Point", "coordinates": [-157.63736324124858, 33.47233021340836]}}, {"type": "Feature", "properties": {"norad_id": 66528, "name": "STARLINK-35928", "group": "last-30-days", "lat": 32.54032929625116, "lon": -155.65670686570846, "alt_km": 410.93002891022934, "timestamp": "2025-12-10T09:57:43.488938+00:00", "meta": {"OBJECT_NAME": "STARLINK-35928", "OBJECT_ID": "2025-265N", "EPOCH": "2025-12-10T04:00:01.998720", "MEAN_MOTION": 15.50535088, "ECCENTRICITY": 0.0001735, "INCLINATION": 42.9998, "RA_OF_ASC_NODE": 69.0109, "ARG_OF_PERICENTER": 274.8457, "MEAN_ANOMALY": 264.8196, "EPHEMERIS_TYPE": 0, "CLASSIFICATION_TYPE": "U", "NORAD_CAT_ID": 66528, "ELEMENT_SET_NO": 999, "REV_AT_EPOCH": 458, "BSTAR": 0.00059329, "MEAN_MOTION_DOT": 0.00034563, "MEAN_MOTION_DDOT": 0}, "tle": {"line1": "1 66528U 25265N   25344.16668980  .00034563  00000+0  59329-3 0  9990", "line2": "2 66528  42.9998  69.0109 0001735 274.8457 264.8196 15.50535088  4581"}}, "geometry": {"type": "Point", "coordinates": [-155.65670686570846, 32.54032929625116]}}, {"type": "Feature", "properties": {"norad_id": 66529, "name": "STARLINK-35933", "group": "last-30-days", "lat": 31.56828221129067, "lon": -153.70094105372527, "alt_km": 410.8622900661785, "timestamp": "2025-12-10T09:57:43.488950+00:00", "meta": {"OBJECT_NAME": "STARLINK-35933", "OBJECT_ID": "2025-265P", "EPOCH": "2025-12-10T04:00:01.998720", "MEAN_MOTION": 15.50562204, "ECCENTRICITY": 0.0001692, "INCLINATION": 42.9998, "RA_OF_ASC_NODE": 69.0052, "ARG_OF_PERICENTER": 263.5168, "MEAN_ANOMALY": 278.0571, "EPHEMERIS_TYPE": 0, "CLASSIFICATION_TYPE": "U", "NORAD_CAT_ID": 66529, "ELEMENT_SET_NO": 999, "REV_AT_EPOCH": 458, "BSTAR": 0.00012449, "MEAN_MOTION_DOT": 6.964e-05, "MEAN_MOTION_DDOT": 0}, "tle": {"line1": "1 66529U 25265P   25344.16668980  .00006964  00000+0  12449-3 0  9997", "line2": "2 66529  42.9998  69.0052 0001692 263.5168 278.0571 15.50562204  4589"}}, "geometry": {"type": "Point", "coordinates": [-153.70094105372527, 31.56828221129067]}}, {"type": "Feature", "properties": {"norad_id": 66530, "name": "STARLINK-35961", "group": "last-30-days", "lat": 30.565355214521695, "lon": -151.7824974281087, "alt_km": 411.1346865670039, "timestamp": "2025-12-10T09:57:43.488960+00:00", "meta": {"OBJECT_NAME": "STARLINK-35961", "OBJECT_ID": "2025-265Q", "EPOCH": "2025-12-10T04:00:01.998720", "MEAN_MOTION": 15.50597862, "ECCENTRICITY": 0.0001637, "INCLINATION": 42.9997, "RA_OF_ASC_NODE": 69.0005, "ARG_OF_PERICENTER": 274.4504, "MEAN_ANOMALY": 269.0337, "EPHEMERIS_TYPE": 0, "CLASSIFICATION_TYPE": "U", "NORAD_CAT_ID": 66530, "ELEMENT_SET_NO": 999, "REV_AT_EPOCH": 458, "BSTAR": -0.0012889, "MEAN_MOTION_DOT": -0.00075283, "MEAN_MOTION_DDOT": 0}, "tle": {"line1": "1 66530U 25265Q   25344.16668980 -.00075283  00000+0 -12889-2 0  9998", "line2": "2 66530  42.9997  69.0005 0001637 274.4504 269.0337 15.50597862  4580"}}, "geometry": {"type": "Point", "coordinates": [-151.7824974281087, 30.565355214521695]}}, {"type": "Feature", "properties": {"norad_id": 66531, "name": "STARLINK-35960", "group": "last-30-days", "lat": 29.54077144935762, "lon": -149.9149866096052, "alt_km": 411.1153815031348, "timestamp": "2025-12-10T09:57:43.488971+00:00", "meta": {"OBJECT_NAME": "STARLINK-35960", "OBJECT_ID": "2025-265R", "EPOCH": "2025-12-10T04:00:01.998720", "MEAN_MOTION": 15.50594204, "ECCENTRICITY": 0.0001459, "INCLINATION": 42.9999, "RA_OF_ASC_NODE": 68.995, "ARG_OF_PERICENTER": 268.4272, "MEAN_ANOMALY": 276.9751, "EPHEMERIS_TYPE": 0, "CLASSIFICATION_TYPE": "U", "NORAD_CAT_ID": 66531, "ELEMENT_SET_NO": 999, "REV_AT_EPOCH": 458, "BSTAR": -0.0011835, "MEAN_MOTION_DOT": -0.00069201, "MEAN_MOTION_DDOT": 0}, "tle": {"line1": "1 66531U 25265R   25344.16668980 -.00069201  00000+0 -11835-2 0  9992", "line2": "2 66531  42.9999  68.9950 0001459 268.4272 276.9751 15.50594204  4581"}}, "geometry": {"type": "Point", "coordinates": [-149.9149866096052, 29.54077144935762]}}, {"type": "Feature", "properties": {"norad_id": 66532, "name": "STARLINK-35914", "group": "last-30-days", "lat": 28.498026463569534, "lon": -148.09715920496689, "alt_km": 411.489142072659, "timestamp": "2025-12-10T09:57:43.488985+00:00", "meta": {"OBJECT_NAME": "STARLINK-35914", "OBJECT_ID": "2025-265S", "EPOCH": "2025-12-10T04:00:01.998720", "MEAN_MOTION": 15.50539278, "ECCENTRICITY": 0.0001766, "INCLINATION": 42.9998, "RA_OF_ASC_NODE": 68.9912, "ARG_OF_PERICENTER": 273.9739, "MEAN_ANOMALY": 273.3581, "EPHEMERIS_TYPE": 0, "CLASSIFICATION_TYPE": "U", "NORAD_CAT_ID": 66532, "ELEMENT_SET_NO": 999, "REV_AT_EPOCH": 458, "BSTAR": 0.00055717, "MEAN_MOTION_DOT": 0.00032434, "MEAN_MOTION_DDOT": 0}, "tle": {"line1": "1 66532U 25265S   25344.16668980  .00032434  00000+0  55717-3 0  9997", "line2": "2 66532  42.9998  68.9912 0001766 273.9739 273.3581 15.50539278  4581"}}, "geometry": {"type": "Point", "coordinates": [-148.09715920496689, 28.498026463569534]}}, {"type": "Feature", "properties": {"norad_id": 66533, "name": "STARLINK-35707", "group": "last-30-days", "lat": 27.41487754696205, "lon": -146.29046011203584, "alt_km": 411.5126735519516, "timestamp": "2025-12-10T09:57:43.488996+00:00", "meta": {"OBJECT_NAME": "STARLINK-35707", "OBJECT_ID": "2025-265T", "EPOCH": "2025-12-10T04:00:01.998720", "MEAN_MOTION": 15.50601804, "ECCENTRICITY": 0.000165, "INCLINATION": 42.9995, "RA_OF_ASC_NODE": 68.9855, "ARG_OF_PERICENTER": 269.6477, "MEAN_ANOMALY": 279.585, "EPHEMERIS_TYPE": 0, "CLASSIFICATION_TYPE": "U", "NORAD_CAT_ID": 66533, "ELEMENT_SET_NO": 999, "REV_AT_EPOCH": 458, "BSTAR": -0.0013724, "MEAN_MOTION_DOT": -0.000801, "MEAN_MOTION_DDOT": 0}, "tle": {"line1": "1 66533U 25265T   25344.16668980 -.00080100  00000+0 -13724-2 0  9994", "line2": "2 66533  42.9995  68.9855 0001650 269.6477 279.5850 15.50601804  4580"}}, "geometry": {"type": "Point", "coordinates": [-146.29046011203584, 27.41487754696205]}}, {"type": "Feature", "properties": {"norad_id": 66534, "name": "STARLINK-35976", "group": "last-30-days", "lat": 26.32529790018194, "lon": -144.54179643440634, "alt_km": 411.7510757445534, "timestamp": "2025-12-10T09:57:43.489006+00:00", "meta": {"OBJECT_NAME": "STARLINK-35976", "OBJECT_ID": "2025-265U", "EPOCH": "2025-12-10T04:00:01.998720", "MEAN_MOTION": 15.50538118, "ECCENTRICITY": 0.0001779, "INCLINATION": 43, "RA_OF_ASC_NODE": 68.9822, "ARG_OF_PERICENTER": 270.8896, "MEAN_ANOMALY": 280.2793, "EPHEMERIS_TYPE": 0, "CLASSIFICATION_TYPE": "U", "NORAD_CAT_ID": 66534, "ELEMENT_SET_NO": 999, "REV_AT_EPOCH": 458, "BSTAR": 0.00056079, "MEAN_MOTION_DOT": 0.00032647, "MEAN_MOTION_DDOT": 0}, "tle": {"line1": "1 66534U 25265U   25344.16668980  .00032647  00000+0  56079-3 0  9997", "line2": "2 66534  43.0000  68.9822 0001779 270.8896 280.2793 15.50538118  4587"}}, "geometry": {"type": "Point", "coordinates": [-144.54179643440634, 26.32529790018194]}}, {"type": "Feature", "properties": {"norad_id": 66535, "name": "STARLINK-35514", "group": "last-30-days", "lat": 25.199880484844268, "lon": -142.80568281002556, "alt_km": 411.76975556592424, "timestamp": "2025-12-10T09:57:43.489016+00:00", "meta": {"OBJECT_NAME": "STARLINK-35514", "OBJECT_ID": "2025-265V", "EPOCH": "2025-12-10T04:00:01.998720", "MEAN_MOTION": 15.50589622, "ECCENTRICITY": 0.00016, "INCLINATION": 43, "RA_OF_ASC_NODE": 68.9774, "ARG_OF_PERICENTER": 267.5985, "MEAN_ANOMALY": 285.473, "EPHEMERIS_TYPE": 0, "CLASSIFICATION_TYPE": "U", "NORAD_CAT_ID": 66535, "ELEMENT_SET_NO": 999, "REV_AT_EPOCH": 458, "BSTAR": -0.0010533, "MEAN_MOTION_DOT": -0.00061672, "MEAN_MOTION_DDOT": 0}, "tle": {"line1": "1 66535U 25265V   25344.16668980 -.00061672  00000+0 -10533-2 0  9994", "line2": "2 66535  43.0000  68.9774 0001600 267.5985 285.4730 15.50589622  4583"}}, "geometry": {"type": "Point", "coordinates": [-142.80568281002556, 25.199880484844268]}}]}